NORAD_CAT_ID,OBJECT_NAME,OBJECT_TYPE,EPOCH,MEAN_MOTION,ECCENTRICITY,INCLINATION,RA_OF_ASC_NODE,ARG_OF_PERICENTER,MEAN_ANOMALY,BSTAR,MEAN_MOTION_DOT,MEAN_MOTION_DDOT,TLE_LINE0,TLE_LINE1,TLE_LINE2,SEMIMAJOR_AXIS,PERIOD,APOGEE,PERIGEE,DECAYED
53536.0,STARLINK-4053,PAYLOAD,2022-12-12 03:24:07,15.07204652,0.0002453,53.2183,336.6738,33.6274,326.4873,0.00016137,2.173e-05,0.0,0 STARLINK-4053,1 53536U 22101K   22346.14175197  .00002173  00000-0  16137-3 0  9994,2 53536  53.2183 336.6738 0002453  33.6274 326.4873 15.07204652 17633,6922.884,95.541,546.447,543.05,0.0
53536.0,STARLINK-4053,PAYLOAD,2022-12-12 09:46:04,15.07212338,0.0002119,53.2165,335.4859,41.3907,318.7244,-0.00023384,-3.842e-05,0.0,0 STARLINK-4053,1 53536U 22101K   22346.40699576 -.00003842  00000-0 -23384-3 0  9993,2 53536  53.2165 335.4859 0002119  41.3907 318.7244 15.07212338 17672,6922.86,95.541,546.192,543.258,0.0
53536.0,STARLINK-4053,PAYLOAD,2022-12-13 08:02:55,15.07215686,0.000231,53.2169,331.3285,43.1735,316.9438,0.00021647,3.014e-05,0.0,0 STARLINK-4053,1 53536U 22101K   22347.33536290  .00003014  00000-0  21647-3 0  9998,2 53536  53.2169 331.3285 0002310  43.1735 316.9438 15.07215686 17816,6922.85,95.54,546.314,543.116,0.0
53536.0,STARLINK-4053,PAYLOAD,2022-12-13 16:00:22,15.07207884,0.0002413,53.2168,329.8447,38.9163,321.2002,0.00014867,1.98e-05,0.0,0 STARLINK-4053,1 53536U 22101K   22347.66692670  .00001980  00000-0  14867-3 0  9995,2 53536  53.2168 329.8447 0002413  38.9163 321.2002 15.07207884 17860,6922.874,95.541,546.409,543.068,0.0
53536.0,STARLINK-4053,PAYLOAD,2022-12-14 07:55:15,15.07211712,0.0002481,53.2171,326.8733,37.6275,322.4890000000001,0.00015112,2.018e-05,0.0,0 STARLINK-4053,1 53536U 22101K   22348.33004184  .00002018  00000-0  15112-3 0  9994,2 53536  53.2171 326.8733 0002481  37.6275 322.4890 15.07211712 17968,6922.861999999999,95.541,546.444,543.009,0.0
53536.0,STARLINK-4053,PAYLOAD,2022-12-14 15:52:42,15.07208548,0.0002341,53.2172,325.3891,39.5461,320.57,0.00012918,1.683e-05,0.0,0 STARLINK-4053,1 53536U 22101K   22348.66160270  .00001683  00000-0  12918-3 0  9997,2 53536  53.2172 325.3891 0002341  39.5461 320.5700 15.07208548 18010,6922.871999999999,95.541,546.357,543.116,0.0
53536.0,STARLINK-4053,PAYLOAD,2022-12-15 04:36:37,15.07206439,0.0002183,53.2162,323.0124,39.2555,320.8595,-7.2359e-05,-1.385e-05,0.0,0 STARLINK-4053,1 53536U 22101K   22349.19209818 -.00001385  00000-0 -72359-4 0  9995,2 53536  53.2162 323.0124 0002183  39.2555 320.8595 15.07206439 18098,6922.878000000002,95.541,546.254,543.232,0.0
53536.0,STARLINK-4053,PAYLOAD,2022-12-15 10:58:34,15.07210246,0.0002215,53.217,321.8255,37.7259,322.3887,-1.8675e-05,-5.68e-06,0.0,0 STARLINK-4053,1 53536U 22101K   22349.45734769 -.00000568  00000-0 -18675-4 0  9995,2 53536  53.2170 321.8255 0002215  37.7259 322.3887 15.07210246 18135,6922.866,95.541,546.265,543.198,0.0
53536.0,STARLINK-4053,PAYLOAD,2022-12-15 15:45:03,15.07202822,0.0002142,53.2166,320.9348,38.1328,321.9815,-0.0001025,-1.844e-05,0.0,0 STARLINK-4053,1 53536U 22101K   22349.65628913 -.00001844  00000-0 -10250-3 0  9998,2 53536  53.2166 320.9348 0002142  38.1328 321.9815 15.07202822 18164,6922.889,95.541,546.237,543.271,0.0
53536.0,STARLINK-4053,PAYLOAD,2022-12-16 09:15:26,15.07200758,0.0002473,53.2169,317.6694,37.1332,322.983,-7.008e-06,-3.91e-06,0.0,0 STARLINK-4053,1 53536U 22101K   22350.38571881 -.00000391  00000-0 -70080-5 0  9996,2 53536  53.2169 317.6694 0002473  37.1332 322.9830 15.07200758 18271,6922.895,95.541,546.472,543.048,0.0
53536.0,STARLINK-4053,PAYLOAD,2022-12-17 04:21:18,15.07202228,0.000222,53.2165,314.1056,39.7387,320.3766,0.00014568,1.934e-05,0.0,0 STARLINK-4053,1 53536U 22101K   22351.18146361  .00001934  00000-0  14568-3 0  9995,2 53536  53.2165 314.1056 0002220  39.7387 320.3766 15.07202228 18396,6922.891,95.541,546.293,543.219,0.0
53536.0,STARLINK-4053,PAYLOAD,2022-12-17 07:32:17,15.07197876,0.0002183,53.2164,313.5123,38.0961,322.0184,5.9347e-05,6.2e-06,0.0,0 STARLINK-4053,1 53536U 22101K   22351.31409024  .00000620  00000-0  59347-4 0  9994,2 53536  53.2164 313.5123 0002183  38.0961 322.0184 15.07197876 18419,6922.904,95.542,546.281,543.258,0.0
53536.0,STARLINK-4053,PAYLOAD,2022-12-18 07:24:37,15.07203948,0.0002196,53.2163,309.058,36.3736,323.7404,5.2836e-05,5.21e-06,0.0,0 STARLINK-4053,1 53536U 22101K   22352.30876846  .00000521  00000-0  52836-4 0  9990,2 53536  53.2163 309.0580 0002196  36.3736 323.7404 15.07203948 18567,6922.886,95.541,546.271,543.23,0.0
53536.0,STARLINK-4053,PAYLOAD,2022-12-18 13:46:34,15.07208697,0.0002179,53.2163,307.8704,36.467,323.6469,6.7204e-05,7.400000000000001e-06,0.0,0 STARLINK-4053,1 53536U 22101K   22352.57401355  .00000740  00000-0  67204-4 0  9996,2 53536  53.2163 307.8704 0002179  36.4670 323.6469 15.07208697 18601,6922.871,95.541,546.245,543.2280000000002,0.0
53536.0,STARLINK-4053,PAYLOAD,2022-12-19 08:52:27,15.07203935,0.0002309,53.2162,304.3073,34.3802,325.7339,0.00010421,1.303e-05,0.0,0 STARLINK-4053,1 53536U 22101K   22353.36976104  .00001303  00000-0  10421-3 0  9997,2 53536  53.2162 304.3073 0002309  34.3802 325.7339 15.07203935 18722,6922.886,95.541,546.349,543.1519999999998,0.0
53536.0,STARLINK-4053,PAYLOAD,2022-12-19 13:38:55,15.07206591,0.0002231,53.2175,303.4168,35.6487,324.4653,0.00017305,2.352e-05,0.0,0 STARLINK-4053,1 53536U 22101K   22353.56869504  .00002352  00000-0  17305-3 0  9997,2 53536  53.2175 303.4168 0002231  35.6487 324.4653 15.07206591 18757,6922.878000000002,95.541,546.2869999999998,543.198,0.0
53536.0,STARLINK-4053,PAYLOAD,2022-12-20 02:22:50,15.07192346,0.0002309,53.217,301.0415,39.019,321.0968,-0.00010641,-1.903e-05,0.0,0 STARLINK-4053,1 53536U 22101K   22354.09919676 -.00001903  00000-0 -10641-3 0  9991,2 53536  53.2170 301.0415 0002309  39.0190 321.0968 15.07192346 18839,6922.920999999999,95.542,546.385,543.188,0.0
53536.0,STARLINK-4053,PAYLOAD,2022-12-20 08:44:47,15.0720146,0.0002241,53.2164,299.8529,38.4646,321.6504,-4.7864e-06,-3.57e-06,0.0,0 STARLINK-4053,1 53536U 22101K   22354.36443966 -.00000357  00000-0 -47864-5 0  9996,2 53536  53.2164 299.8529 0002241  38.4646 321.6504 15.07201460 18870,6922.893,95.541,546.31,543.207,0.0
53536.0,STARLINK-4053,PAYLOAD,2022-12-20 13:31:15,15.07207678,0.0002357,53.2164,298.962,39.6692,320.4471,0.0001568,2.104e-05,0.0,0 STARLINK-4053,1 53536U 22101K   22354.56337409  .00002104  00000-0  15680-3 0  9991,2 53536  53.2164 298.9620 0002357  39.6692 320.4471 15.07207678 18905,6922.874,95.541,546.371,543.1080000000002,0.0
53536.0,STARLINK-4053,PAYLOAD,2022-12-21 07:01:38,15.07204179,0.0002282,53.2159,295.696,39.2513,320.8643,0.00047457,6.947e-05,0.0,0 STARLINK-4053,1 53536U 22101K   22355.29280894  .00006947  00000-0  47457-3 0  9993,2 53536  53.2159 295.6960 0002282  39.2513 320.8643 15.07204179 19016,6922.885,95.541,546.33,543.17,0.0
53536.0,STARLINK-4053,PAYLOAD,2022-12-22 02:07:32,15.07185577,0.0002201,53.2159,292.1319,41.8269,318.289,7.933e-05,9.23e-06,0.0,0 STARLINK-4053,1 53536U 22101K   22356.08856830  .00000923  00000-0  79330-4 0  9994,2 53536  53.2159 292.1319 0002201  41.8269 318.2890 15.07185577 19132,6922.941999999999,95.542,546.331,543.283,0.0
53536.0,STARLINK-4053,PAYLOAD,2022-12-22 13:15:57,15.07198584,0.0002101,53.2161,290.0535,41.1905,318.9244,0.00061877,9.146e-05,0.0,0 STARLINK-4053,1 53536U 22101K   22356.55275438  .00009146  00000-0  61877-3 0  9997,2 53536  53.2161 290.0535 0002101  41.1905 318.9244 15.07198584 19201,6922.901999999999,95.541,546.222,543.313,0.0
53536.0,STARLINK-4053,PAYLOAD,2022-12-23 01:59:52,15.07229453,0.0002214,53.216,287.6785,41.8402,318.2758,0.0015611,0.00023575,0.0,0 STARLINK-4053,1 53536U 22101K   22357.08324668  .00023575  00000-0  15611-2 0  9992,2 53536  53.2160 287.6785 0002214  41.8402 318.2758 15.07229453 19284,6922.808000000001,95.54,546.205,543.14,0.0
53536.0,STARLINK-4053,PAYLOAD,2022-12-23 13:08:16,15.07248848,0.0002288,53.2162,285.6004,41.9892,318.1274,0.0013342,0.00020108,0.0,0 STARLINK-4053,1 53536U 22101K   22357.54741898  .00020108  00000-0  13342-2 0  9999,2 53536  53.2162 285.6004 0002288  41.9892 318.1274 15.07248848 19352,6922.748000000001,95.538,546.197,543.029,0.0
53536.0,STARLINK-4053,PAYLOAD,2022-12-23 17:54:45,15.07232469,0.0002414,53.2157,284.7097,46.7041,313.4152,0.00078573,0.00011706,0.0,0 STARLINK-4053,1 53536U 22101K   22357.74635976  .00011706  00000-0  78573-3 0  9992,2 53536  53.2157 284.7097 0002414  46.7041 313.4152 15.07232469 19386,6922.7980000000025,95.539,546.3340000000002,542.992,0.0
53536.0,STARLINK-4053,PAYLOAD,2022-12-23 19:30:14,15.07232545,0.000251,53.2163,284.413,42.9043,317.2144,0.00083467,0.00012454,0.0,0 STARLINK-4053,1 53536U 22101K   22357.81267198  .00012454  00000-0  83467-3 0  9996,2 53536  53.2163 284.4130 0002510  42.9043 317.2144 15.07232545 19394,6922.7980000000025,95.539,546.401,542.925,0.0
53536.0,STARLINK-4053,PAYLOAD,2022-12-24 05:03:10,15.07220431,0.0002284,53.2161,282.6302,46.2367,313.8813,0.00019473,2.683e-05,0.0,0 STARLINK-4053,1 53536U 22101K   22358.21054036  .00002683  00000-0  19473-3 0  9995,2 53536  53.2161 282.6302 0002284  46.2367 313.8813 15.07220431 19450,6922.835,95.54,546.281,543.119,0.0
53536.0,STARLINK-4053,PAYLOAD,2022-12-25 11:17:27,15.07211926,0.0002222,53.2157,276.9883,38.8174,321.2976,-5.2741e-05,-1.087e-05,0.0,0 STARLINK-4053,1 53536U 22101K   22359.47045913 -.00001087  00000-0 -52741-4 0  9993,2 53536  53.2157 276.9883 0002222  38.8174 321.2976 15.07211926 19643,6922.861,95.541,546.264,543.188,0.0
53536.0,STARLINK-4053,PAYLOAD,2022-12-26 03:12:21,15.07203883,0.0002124,53.2164,274.0188,40.7848,319.3302,2.9919e-06,-2.38e-06,0.0,0 STARLINK-4053,1 53536U 22101K   22360.13358455 -.00000238  00000-0  29919-5 0  9994,2 53536  53.2164 274.0188 0002124  40.7848 319.3302 15.07203883 19744,6922.886,95.541,546.221,543.28,0.0
